{
  "type": "FeatureCollection",
  "features": [
    {
      "type": "Feature",
      "properties": {
        "name": "广州",
        "visits": [
          { "date": "2020-09", "post": "千里行与结婚记" },
          { "date": "2026-02-25", "post": "春节旅行" }
        ]
      },
      "geometry": { "type": "Point", "coordinates": [113.2644, 23.1291] }
    },
    {
      "type": "Feature",
      "properties": { "name": "大理", "visits": [{ "date": "2020-09", "post": "千里行与结婚记" }] },
      "geometry": { "type": "Point", "coordinates": [100.2676, 25.6065] }
    },
    {
      "type": "Feature",
      "properties": { "name": "西安", "visits": [{ "date": "2020-09", "post": "千里行与结婚记" }] },
      "geometry": { "type": "Point", "coordinates": [108.9398, 34.3416] }
    },
    {
      "type": "Feature",
      "properties": {
        "name": "大连",
        "visits": [
          { "date": "2021-05-06", "post": "大连之行" },
          { "date": "2026-07-10", "post": "培训旅行" }
        ]
      },
      "geometry": { "type": "Point", "coordinates": [121.6147, 38.9140] }
    },
    {
      "type": "Feature",
      "properties": {
        "name": "沈阳",
        "visits": [
          { "date": "2021-05-06", "post": "大连之行" },
          { "date": "2026-08-21", "post": "沈阳旅行" }
        ]
      },
      "geometry": { "type": "Point", "coordinates": [123.4315, 41.8057] }
    },
    {
      "type": "Feature",
      "properties": {
        "name": "苏州",
        "visits": [
          { "date": "2021-07-11", "post": "出差" },
          { "date": "2022-12-16", "post": "苏州之行" },
          { "date": "2026-06-08", "post": "年会旅行" }
        ]
      },
      "geometry": { "type": "Point", "coordinates": [120.5853, 31.2989] }
    },
    {
      "type": "Feature",
      "properties": {
        "name": "上海",
        "visits": [
          { "date": "2021-07-11", "post": "出差" },
          { "date": "2025-01-16", "post": "出差上海" },
          { "date": "2025-04-07", "post": "上海之行" }
        ]
      },
      "geometry": { "type": "Point", "coordinates": [121.4737, 31.2304] }
    },
    {
      "type": "Feature",
      "properties": {
        "name": "北京",
        "visits": [
          { "date": "2023-04-16", "post": "出差北京" },
          { "date": "2024-03-05", "post": "闲逛北京" }
        ]
      },
      "geometry": { "type": "Point", "coordinates": [116.4074, 39.9042] }
    },
    {
      "type": "Feature",
      "properties": { "name": "长春", "visits": [{ "date": "2024-05-06", "post": "五一带娃长春游" }] },
      "geometry": { "type": "Point", "coordinates": [125.3235, 43.8171] }
    },
    {
      "type": "Feature",
      "properties": { "name": "武汉", "visits": [{ "date": "2025-02-17", "post": "出差武汉" }] },
      "geometry": { "type": "Point", "coordinates": [114.3054, 30.5931] }
    },
    {
      "type": "Feature",
      "properties": { "name": "南京", "visits": [{ "date": "2026-01-15", "post": "南京之行" }] },
      "geometry": { "type": "Point", "coordinates": [118.7969, 32.0603] }
    },
    {
      "type": "Feature",
      "properties": { "name": "珠海", "visits": [{ "date": "2026-02-25", "post": "春节旅行" }] },
      "geometry": { "type": "Point", "coordinates": [113.5767, 22.2707] }
    },
    {
      "type": "Feature",
      "properties": { "name": "成都", "visits": [{ "date": "2026-02-25", "post": "春节旅行" }] },
      "geometry": { "type": "Point", "coordinates": [104.0665, 30.5723] }
    }
  ]
}
